NORAD_CAT_ID,OBJECT_NAME,OBJECT_TYPE,EPOCH,MEAN_MOTION,ECCENTRICITY,INCLINATION,RA_OF_ASC_NODE,ARG_OF_PERICENTER,MEAN_ANOMALY,BSTAR,MEAN_MOTION_DOT,MEAN_MOTION_DDOT,TLE_LINE0,TLE_LINE1,TLE_LINE2,SEMIMAJOR_AXIS,PERIOD,APOGEE,PERIGEE,DECAYED
52688.0,STARLINK-4032,PAYLOAD,2022-08-30 06:00:00,15.08813281,0.0002525,53.2165,163.6489,50.8601,83.5383,0.002924,0.00046522,0.0,0 STARLINK-4032,1 52688U 22053AJ  22242.25001157  .00046522  00000-0  29240-2 0  9992,2 52688  53.2165 163.6489 0002525  50.8601  83.5383 15.08813281 16390,6917.962,95.439,541.5740000000002,538.08,0.0
52688.0,STARLINK-4032,PAYLOAD,2022-08-30 14:00:01,15.08833317,0.0002346999999999,53.2163,162.1509,55.3154,90.6734,0.000661,0.00010246,0.0,0 STARLINK-4032,1 52688U 22053AJ  22242.58334491  .00010246  00000-0  66100-3 0  9999,2 52688  53.2163 162.1509 0002347  55.3154  90.6734 15.08833317  1306,6917.901,95.438,541.389,538.1419999999998,0.0
52688.0,STARLINK-4032,PAYLOAD,2022-08-30 22:00:00,15.0884723,0.0002379,53.2163,160.6552,55.5852,101.9953,-0.0028051,-0.00044666,0.0,0 STARLINK-4032,1 52688U 22053AJ  22242.91667824 -.00044666  00000-0 -28051-2 0  9992,2 52688  53.2163 160.6552 0002379  55.5852 101.9953 15.08847230 16493,6917.858,95.437,541.369,538.078,0.0
52688.0,STARLINK-4032,PAYLOAD,2022-08-31 14:00:01,15.08811133,0.0002338,53.2157,157.6618,55.7396,125.0067,0.0021956999999999,0.00034803,0.0,0 STARLINK-4032,1 52688U 22053AJ  22243.58334491  .00034803  00000-0  21957-2 0  9995,2 52688  53.2157 157.6618 0002338  55.7396 125.0067 15.08811133 16592,6917.969,95.439,541.451,538.216,0.0
52688.0,STARLINK-4032,PAYLOAD,2022-08-31 22:00:00,15.08849545,0.0002449,53.2157,156.1663,56.6217,135.6974,-0.0014116,-0.00022691,0.0,0 STARLINK-4032,1 52688U 22053AJ  22243.91667824 -.00022691  00000-0 -14116-2 0  9994,2 52688  53.2157 156.1663 0002449  56.6217 135.6974 15.08849545  1306,6917.851,95.437,541.41,538.0219999999998,0.0
52688.0,STARLINK-4032,PAYLOAD,2022-09-01 06:00:00,15.08826266,0.0002563,53.2154,154.6707,52.7214,151.196,0.0023698,0.00037616,0.0,0 STARLINK-4032,1 52688U 22053AJ  22244.25001157  .00037616  00000-0  23698-2 0  9999,2 52688  53.2154 154.6707 0002563  52.7214 151.1960 15.08826266 16697,6917.922,95.438,541.56,538.014,0.0
52688.0,STARLINK-4032,PAYLOAD,2022-09-01 14:00:01,15.08827583,0.0002429,53.2155,153.1724,57.2232,158.3604,0.0026355999999999,0.00041894,0.0,0 STARLINK-4032,1 52688U 22053AJ  22244.58335648  .00041894  00000-0  26356-2 0  9997,2 52688  53.2155 153.1724 0002429  57.2232 158.3604 15.08827583  1301,6917.918000000002,95.438,541.464,538.1030000000002,0.0
52688.0,STARLINK-4032,PAYLOAD,2022-09-01 22:00:00,15.08879049,0.0002519,53.2156,151.67700000000005,57.3434,169.7716,-0.0034722,-0.00055187,0.0,0 STARLINK-4032,1 52688U 22053AJ  22244.91667824 -.00055187  00000-0 -34722-2 0  9996,2 52688  53.2156 151.6770 0002519  57.3434 169.7716 15.08879049 16794,6917.761,95.435,541.369,537.883,0.0
52688.0,STARLINK-4032,PAYLOAD,2022-09-02 14:00:01,15.08816769,0.0002434,53.2157,148.683,57.5587,192.7712,0.0028933,0.00046032,0.0,0 STARLINK-4032,1 52688U 22053AJ  22245.58334491  .00046032  00000-0  28933-2 0  9995,2 52688  53.2157 148.6830 0002434  57.5587 192.7712 15.08816769 16898,6917.951,95.439,541.5,538.133,0.0
52688.0,STARLINK-4032,PAYLOAD,2022-09-02 22:00:01,15.08856299,0.0002563999999999,53.2158,147.1877,57.163,204.8137,-0.0012515,-0.00020161,0.0,0 STARLINK-4032,1 52688U 22053AJ  22245.91668981 -.00020161  00000-0 -12515-2 0  9992,2 52688  53.2158 147.1877 0002564  57.1630 204.8137 15.08856299  1301,6917.831,95.437,541.469,537.922,0.0
52688.0,STARLINK-4032,PAYLOAD,2022-09-03 08:00:01,15.08879583,0.0002551,53.2159,145.3172,54.5144,311.9036,-0.0043229,-0.00068512,0.0,0 STARLINK-4032,1 52688U 22053AJ  22246.33334491 -.00068512  00000-0 -43229-2 0  9993,2 52688  53.2159 145.3172 0002551  54.5144 311.9036 15.08879583 17000,6917.759,95.435,541.389,537.86,0.0
52688.0,STARLINK-4032,PAYLOAD,2022-09-03 14:00:01,15.08817027,0.0002414,53.2161,144.1937,58.325,226.8177,0.0027871,0.00044321,0.0,0 STARLINK-4032,1 52688U 22053AJ  22246.58334491  .00044321  00000-0  27871-2 0  9995,2 52688  53.2161 144.1937 0002414  58.3250 226.8177 15.08817027  1308,6917.951,95.439,541.486,538.146,0.0
52688.0,STARLINK-4032,PAYLOAD,2022-09-03 22:00:00,15.08855249,0.0002522,53.2163,142.6985,57.2001,239.5282,-0.00096863,-0.00015678,0.0,0 STARLINK-4032,1 52688U 22053AJ  22246.91667824 -.00015678  00000-0 -96863-3 0  9994,2 52688  53.2163 142.6985 0002522  57.2001 239.5282 15.08855249 17097,6917.834,95.437,541.443,537.9540000000002,0.0
52688.0,STARLINK-4032,PAYLOAD,2022-09-04 14:00:01,15.08827586,0.0002314,53.2166,139.7044,59.2688,260.7672,0.0028605999999999,0.00045518,0.0,0 STARLINK-4032,1 52688U 22053AJ  22247.58335648  .00045518  00000-0  28606-2 0  9997,2 52688  53.2166 139.7044 0002314  59.2688 260.7672 15.08827586 17198,6917.918000000002,95.438,541.384,538.183,0.0
52688.0,STARLINK-4032,PAYLOAD,2022-09-04 20:00:01,15.08875048,0.0002307,53.2168,138.5831,57.9633,180.7021,-0.0036614,-0.00058148,0.0,0 STARLINK-4032,1 52688U 22053AJ  22247.83334491 -.00058148  00000-0 -36614-2 0  9993,2 52688  53.2168 138.5831 0002307  57.9633 180.7021 15.08875048  1309,6917.773,95.435,541.234,538.0419999999998,0.0
52688.0,STARLINK-4032,PAYLOAD,2022-09-05 06:00:00,15.0885862,0.0002302,53.2165,136.7132,52.2554,290.9170000000001,-0.0012155999999999,-0.00019593,0.0,0 STARLINK-4032,1 52688U 22053AJ  22248.25001157 -.00019593  00000-0 -12156-2 0  9996,2 52688  53.2165 136.7132 0002302  52.2554 290.9170 15.08858620 17296,6917.823,95.436,541.281,538.096,0.0
52688.0,STARLINK-4032,PAYLOAD,2022-09-05 14:00:01,15.08818941,0.0002059,53.2167,135.2154,57.972,296.8197,0.0018182,0.00028751,0.0,0 STARLINK-4032,1 52688U 22053AJ  22248.58334491  .00028751  00000-0  18182-2 0  9991,2 52688  53.2167 135.2154 0002059  57.9720 296.8197 15.08818941  1303,6917.945,95.439,541.234,538.385,0.0
52688.0,STARLINK-4032,PAYLOAD,2022-09-05 22:00:00,15.08826512,0.0002125,53.2169,133.7206,53.8156,312.5575,-0.0012329,-0.0001985,0.0,0 STARLINK-4032,1 52688U 22053AJ  22248.91667824 -.00019850  00000-0 -12329-2 0  9996,2 52688  53.2169 133.7206 0002125  53.8156 312.5575 15.08826512  1307,6917.922,95.438,541.257,538.317,0.0
52688.0,STARLINK-4032,PAYLOAD,2022-09-06 12:00:00,15.08778019,0.0001915,53.2167,131.1009,54.9896,241.6312,0.0029366999999999,0.0004668,0.0,0 STARLINK-4032,1 52688U 22053AJ  22249.50001157  .00046680  00000-0  29367-2 0  9992,2 52688  53.2167 131.1009 0001915  54.9896 241.6312 15.08778019 17482,6918.07,95.441,541.26,538.61,0.0
52688.0,STARLINK-4032,PAYLOAD,2022-09-06 14:00:01,15.08777508,0.0001913,53.2166,130.7267,56.4865,333.0191,0.0034368,0.0005474,0.0,0 STARLINK-4032,1 52688U 22053AJ  22249.58334491  .00054740  00000-0  34368-2 0  9993,2 52688  53.2166 130.7267 0001913  56.4865 333.0191 15.08777508  1300,6918.071,95.442,541.26,538.613,0.0
52688.0,STARLINK-4032,PAYLOAD,2022-09-06 22:00:00,15.08817075,0.0002064,53.2166,129.2322,53.4817,347.5674,-0.0008917999999999,-0.00014445,0.0,0 STARLINK-4032,1 52688U 22053AJ  22249.91667824 -.00014445  00000-0 -89180-3 0  9992,2 52688  53.2166 129.2322 0002064  53.4817 347.5674 15.08817075  1307,6917.95,95.439,541.243,538.388,0.0
52688.0,STARLINK-4032,PAYLOAD,2022-09-07 04:00:00,15.08804033,0.0002084,53.2163,128.1103,50.7316,268.9899,0.0020231,0.00032025,0.0,0 STARLINK-4032,1 52688U 22053AJ  22250.16667824  .00032025  00000-0  20231-2 0  9994,2 52688  53.2163 128.1103 0002084  50.7316 268.9899 15.08804033 17587,6917.99,95.44,541.297,538.414,0.0
52688.0,STARLINK-4032,PAYLOAD,2022-09-07 14:00:01,15.0880522,0.0001955999999999,53.2163,126.238,58.7062,5.4811,0.0031168,0.00049618,0.0,0 STARLINK-4032,1 52688U 22053AJ  22250.58334491  .00049618  00000-0  31168-2 0  9998,2 52688  53.2163 126.2380 0001956  58.7062   5.4811 15.08805220  1306,6917.986999999999,95.44,541.205,538.499,0.0
52688.0,STARLINK-4032,PAYLOAD,2022-09-07 22:00:00,15.088394400000002,0.000212,53.2162,124.7435,55.1817,20.5807,-0.0006927,-0.00011296,0.0,0 STARLINK-4032,1 52688U 22053AJ  22250.91667824 -.00011296  00000-0 -69270-3 0  9993,2 52688  53.2162 124.7435 0002120  55.1817  20.5807 15.08839440  1306,6917.882,95.438,541.214,538.281,0.0
52688.0,STARLINK-4032,PAYLOAD,2022-09-08 14:00:01,15.08833174,0.0002021999999999,53.216,121.749,59.7362,39.2192,0.0027288,0.00043401,0.0,0 STARLINK-4032,1 52688U 22053AJ  22251.58334491  .00043401  00000-0  27288-2 0  9991,2 52688  53.2160 121.7490 0002022  59.7362  39.2192 15.08833174  1300,6917.901,95.438,541.165,538.367,0.0
52688.0,STARLINK-4032,PAYLOAD,2022-09-08 22:00:00,15.08869806,0.0002145,53.2159,120.2543,54.9753,55.5881,-0.0033683999999999,-0.00053543,0.0,0 STARLINK-4032,1 52688U 22053AJ  22251.91667824 -.00053543  00000-0 -33684-2 0  9994,2 52688  53.2159 120.2543 0002145  54.9753  55.5881 15.08869806  1305,6917.7890000000025,95.436,541.138,538.17,0.0
52688.0,STARLINK-4032,PAYLOAD,2022-09-09 14:00:01,15.08848816,0.000197,53.216,117.2596,58.3806,75.3933,0.00061089,9.45e-05,0.0,0 STARLINK-4032,1 52688U 22053AJ  22252.58334491  .00009450  00000-0  61089-3 0  9996,2 52688  53.2160 117.2596 0001970  58.3806  75.3933 15.08848816  1309,6917.853,95.437,541.081,538.356,0.0
52688.0,STARLINK-4032,PAYLOAD,2022-09-09 22:00:00,15.08836634,0.0002069,53.2159,115.765,52.8782,92.5121,-4.7206e-05,-1.039e-05,0.0,0 STARLINK-4032,1 52688U 22053AJ  22252.91667824 -.00001039  00000-0 -47206-4 0  9995,2 52688  53.2159 115.7650 0002069  52.8782  92.5121 15.08836634  1308,6917.891,95.438,541.187,538.3240000000002,0.0
52688.0,STARLINK-4032,PAYLOAD,2022-09-10 06:00:02,15.08865484,0.0002005999999999,53.2159,114.2679,51.2947,105.7324,-0.0033609,-0.00053419,0.0,0 STARLINK-4032,1 52688U 22053AJ  22253.25002315 -.00053419  00000-0 -33609-2 0  9990,2 52688  53.2159 114.2679 0002006  51.2947 105.7324 15.08865484 18057,6917.802,95.436,541.055,538.28,0.0
